"short","long","postcode","area","areaname","sector","lat","lon"
"Abbey Park","Abbey Park parkrun","LE4 5AQ","LE","Leicester","LE4",52.645191,-1.132222
"Aberbeeg","Aberbeeg parkrun","NP13 2AH","NP","Newport","NP13",51.711165,-3.144286
"Aberdare","Aberdare parkrun","CF44 8LU","CF","Cardiff","CF44",51.718796,-3.460089
"Aberdeen","Aberdeen parkrun","AB23 8DT","AB","Aberdeen","AB23",57.173898,-2.086256
"Aberfields","Aberfields parkrun","CF32 7SL","CF","Cardiff","CF32",51.614631,-3.538198
"Aberystwyth","Aberystwyth parkrun","SY23 1PT","SY","Shrewsbury","SY23",52.414546,-4.080401
"Abingdon","Abingdon parkrun","OX14 3HY","OX","Oxford","OX14",51.667957,-1.277429
"Agnew","Agnew parkrun","DG9 0EB","DG","Dumfries","DG9",54.908188,-5.0349
"Albert","Albert parkrun, Middlesbrough","TS1 3NL","TS","Teesside","TS1",54.564972,-1.231788
"Aldenham","Aldenham parkrun","WD6 3AT","WD","Watford","WD6",51.647953,-0.316507
"Alderford Lake","Alderford Lake parkrun","SY13 2AB","SY","Shrewsbury","SY13",52.953181,-2.675436
"Alderley Park","Alderley Park parkrun","SK10 4TF","SK","Stockport","SK10",53.2793,-2.231854
"Alexandra","Alexandra parkrun, Moss Side","M16 8PX","M","Manchester","M16",53.450142,-2.248827
"Alice Holt","Alice Holt parkrun","GU10 4LS","GU","Guildford","GU10",51.168607,-0.83814
"Ally Pally","Ally Pally parkrun","N22 7AX","N","North London","N22",51.595936,-0.12233
"Alness","Alness parkrun","IV17 0QW","IV","Inverness","IV17",57.694306,-4.256669
"Alton Water","Alton Water parkrun","IP9 2RZ","IP","Ipswich","IP9",51.974806,1.134021
"Alvaston","Alvaston parkrun","DE24 1AL","DE","Derby","DE24",52.906173,-1.440173
"Ancholme Valley Way","Ancholme Valley Way parkrun","DN20 8AT","DN","Doncaster","DN20",53.553676,-0.496441
"Andover","Andover parkrun","SP10 4AA","SP","Salisbury","SP10",51.221092,-1.512766
"Antrim","Antrim parkrun","BT41 4DQ","BT","Belfast","BT41",54.717078,-6.238818
"Armagh","Armagh parkrun","BT60 4EL","BT","Belfast","BT60",54.339812,-6.652951
"Armley","Armley parkrun","LS12 2AX","LS","Leeds","LS12",53.800347,-1.590893
"Arrow Valley","Arrow Valley parkrun","B98 0DD","B","Birmingham","B98",52.29362,-1.906573
"Ashbourne Recreation Ground","Ashbourne Recreation Ground parkrun","DE6 1EJ","DE","Derby","DE6",53.018719,-1.727477
"Ashford","Ashford parkrun","TN23 4QA","TN","Tunbridge Wells","TN23",51.14347,0.864218
"Ashington Community Woodland","Ashington Community Woodland parkrun","NE63 9JZ","NE","Newcastle upon Tyne","NE63",55.190433,-1.572397
"Ashton Court","Ashton Court parkrun","BS41 9JN","BS","Bristol","BS41",51.443592,-2.639948
"Auldcathie District","Auldcathie District parkrun","EH52 6FG","EH","Edinburgh","EH52",55.963327,-3.477658
"Aviemore","Aviemore parkrun","PH22 1UH","PH","Perth","PH22",57.205275,-3.818635
"Aylesbury","Aylesbury parkrun","HP19 9UU","HP","Hemel Hempstead","HP19",51.83162,-0.838394
"Ayr","Ayr parkrun","KA7 4UP","KA","Kilmarnock","KA7",55.436189,-4.624316
"Babbs Mill","Babbs Mill parkrun","B37 6LN","B","Birmingham","B37",52.489833,-1.746034
"Banbury","Banbury parkrun","OX16 3WQ","OX","Oxford","OX16",52.068807,-1.332318
"Bangor","Bangor parkrun, Northern Ireland","BT20 4LH","BT","Belfast","BT20",54.660024,-5.661693
"Banstead Woods","Banstead Woods parkrun","SM7 2FG","SM","Sutton","SM7",51.307648,-0.184225
"Barclay","Barclay parkrun","EN11 8NH","EN","Enfield","EN11",51.759056,-0.019442
"Barking","Barking parkrun","IG1 2RB","IG","Ilford","IG1",51.545894,0.087312
"Barnsley","Barnsley parkrun","S70 1QW","S","Sheffield","S70",53.544369,-1.486115
"Barnstaple","Barnstaple parkrun","EX32 9AH","EX","Exeter","EX32",51.072561,-4.053612
"Barrow","Barrow parkrun","LA13 9BD","LA","Lancaster","LA13",54.117706,-3.218855
"Barry Island","Barry Island parkrun","CF62 5DA","CF","Cardiff","CF62",51.390202,-3.271371
"Bartley Park","Bartley Park parkrun","SO40 8WS","SO","Southampton","SO40",50.914371,-1.509865
"Basildon","Basildon parkrun","SS13 1FN","SS","Southend-on-Sea","SS13",51.577778,0.499615
"Basingstoke","Basingstoke parkrun","RG21 3AF","RG","Reading","RG21",51.258831,-1.082035
"Bath Skyline","Bath Skyline parkrun","BA2 5BJ","BA","Bath","BA2",51.364717,-2.338425
"Beacon","Beacon parkrun","WS13 7AW","WS","Walsall","WS13",52.685891,-1.83863
"Beacon Hill Country Park","Beacon Hill Country Park parkrun","LE12 8TA","LE","Leicester","LE12",52.730411,-1.233675
"Beckenham Place","Beckenham Place parkrun","BR3 1UL","BR","Bromley","BR3",51.41853,-0.01959
"Beckton","Beckton parkrun","E6 5LT","E","East London","E6",51.51176,0.046542
"Bedfont Lakes","Bedfont Lakes parkrun","TW14 8QA","TW","Twickenham","TW14",51.440762,-0.451523
"Bedford","Bedford parkrun","MK40 2NF","MK","Milton Keynes","MK40",52.148125,-0.459366
"Bedgebury Pinetum","Bedgebury Pinetum parkrun","TN17 2SL","TN","Tunbridge Wells","TN17",51.071871,0.450168
"Bedworth","Bedworth parkrun","CV12 8JT","CV","Coventry","CV12",52.476054,-1.47027
"Beeston","Beeston parkrun","NG9 1LX","NG","Nottingham","NG9",52.913592,-1.201737
"Belfast Victoria","Belfast Victoria parkrun","BT4 1QS","BT","Belfast","BT4",54.608785,-5.881573
"Belton House","Belton House parkrun","NG32 2LS","NG","Nottingham","NG32",52.942743,-0.620021
"Belvoir Castle","Belvoir Castle parkrun","NG32 1PA","NG","Nottingham","NG32",52.894882,-0.786835
"Berkeley Green","Berkeley Green parkrun","GL13 9FB","GL","Gloucester","GL13",51.690962,-2.497513
"Bestwood Village","Bestwood Village parkrun","NG6 8ZA","NG","Nottingham","NG6",53.022132,-1.171188
"Bethlem Royal Hospital","Bethlem Royal Hospital parkrun","BR3 3DT","BR","Bromley","BR3",51.385332,-0.029969
"Bevendean Down","Bevendean Down parkrun","BN2 4RE","BN","Brighton","BN2",50.844709,-0.107027
"Beverley Westwood","Beverley Westwood parkrun","HU17 8EL","HU","Hull","HU17",53.840255,-0.440675
"Bexley","Bexley parkrun","DA16 2BX","DA","Dartford","DA16",51.455132,0.113254
"Bicester","Bicester parkrun","OX26 6UH","OX","Oxford","OX26",51.891101,-1.146866
"Bideford","Bideford parkrun","EX39 2QL","EX","Exeter","EX39",51.024075,-4.204316
"Billericay","Billericay parkrun","CM12 0AN","CM","Chelmsford","CM12",51.632966,0.417446
"Birkenhead","Birkenhead parkrun","CH43 8SQ","CH","Chester","CH43",53.394807,-3.051658
"Black Park","Black Park parkrun","SL3 6DT","SL","Slough","SL3",51.540329,-0.5476
"Blackhill","Blackhill parkrun","DH8 5TA","DH","Durham","DH8",54.858315,-1.842366
"Blackpool","Blackpool parkrun","FY3 9RS","FY","Blackpool","FY3",53.811727,-3.023114
"Blaise Castle","Blaise Castle parkrun","BS10 7QS","BS","Bristol","BS10",51.505672,-2.632932
"Blandford","Blandford parkrun","DT11 7UB","DT","Dorchester","DT11",50.863122,-2.16627
"Blickling","Blickling parkrun","NR11 6NJ","NR","Norwich","NR11",52.813653,1.221671
"Blyth Links","Blyth Links parkrun","NE24 3PQ","NE","Newcastle upon Tyne","NE24",55.106922,-1.499456
"Bognor Regis","Bognor Regis parkrun","PO21 1HW","PO","Portsmouth","PO21",50.786913,-0.668305
"Bolberry Down","Bolberry Down parkrun","TQ7 3DY","TQ","Torquay","TQ7",50.23197,-3.842329
"Bolton","Bolton parkrun","BL2 6BZ","BL","Bolton","BL2",53.574715,-2.395615
"Boston","Boston parkrun","PE21 9NQ","PE","Peterborough","PE21",52.990156,-0.038556
"Bournemouth","Bournemouth parkrun","BH7 6JF","BH","Bournemouth","BH7",50.73362,-1.832732
"Bower Park","Bower Park parkrun","CA7 2AJ","CA","Carlisle","CA7",54.761523,-3.331244
"Bowling Park","Bowling Park parkrun","BD4 7LN","BD","Bradford","BD4",53.778303,-1.739889
"Bracknell","Bracknell parkrun","RG40 3EE","RG","Reading","RG40",51.390248,-0.776844
"Bradford","Bradford parkrun","BD9 4JJ","BD","Bradford","BD9",53.814575,-1.775102
"Bramhall Park","Bramhall parkrun","SK7 3EW","SK","Stockport","SK7",53.374268,-2.160702
"Bramley","Bramley parkrun","LS13 3JZ","LS","Leeds","LS13",53.813432,-1.633461
"Bramshall Road","Bramshall Road parkrun","ST14 8DF","ST","Stoke-on-Trent","ST14",52.895262,-1.871048
"Brandon Country Park","Brandon Country Park parkrun","IP27 0SU","IP","Ipswich","IP27",52.436339,0.625877
"Braunstone","Braunstone parkrun","LE3 1HX","LE","Leicester","LE3",52.626129,-1.178681
"Brentwood","Brentwood parkrun","CM14 5QL","CM","Chelmsford","CM14",51.622582,0.266879
"Bressay","Bressay parkrun","ZE2 9EL","ZE","Lerwick","ZE2",60.158081,-1.119683
"Brierley Forest","Brierley Forest parkrun","NG17 2PL","NG","Nottingham","NG17",53.131155,-1.295214
"Brighouse","Brighouse parkrun","HD6 4AF","HD","Huddersfield","HD6",53.706086,-1.778156
"Brighton & Hove","Brighton & Hove parkrun","BN3 7PY","BN","Brighton","BN3",50.84214,-0.172498
"Brixworth Country","Brixworth Country parkrun","NN6 9WJ","NN","Northampton","NN6",52.318576,-0.895675
"Broadwater","Broadwater parkrun","GU7 3JU","GU","Guildford","GU7",51.197911,-0.598312
"Brockenhurst","Brockenhurst parkrun","SO42 7ZE","SO","Southampton","SO42",50.821883,-1.567457
"Brockwell","Brockwell parkrun, Herne Hill","SE24 0EH","SE","South East London","SE24",51.452538,-0.105464
"Bromley","Bromley parkrun","BR2 9EQ","BR","Bromley","BR2",51.386539,0.022874
"Brooklands","Brooklands parkrun","KT13 0YP","KT","Kingston upon Thames","KT13",51.346969,-0.471408
"Brueton","Brueton parkrun","B91 3HW","B","Birmingham","B91",52.406754,-1.764593
"Brundall","Brundall parkrun","NR13 5RF","NR","Norwich","NR13",52.624133,1.417369
"Bryn Bach","Bryn Bach parkrun","NP22 3AY","NP","Newport","NP22",51.781621,-3.269548
"Brynaman","Brynaman parkrun","SA18 1SL","SA","Swansea","SA18",51.808402,-3.869719
"Buckingham","Buckingham parkrun","MK18 1GD","MK","Milton Keynes","MK18",51.998987,-0.984462
"Burgess","Burgess parkrun","SE5 0BL","SE","South East London","SE5",51.484536,-0.081024
"Burnage","Burnage parkrun","SK4 3EB","SK","Stockport","SK4",53.407152,-2.209185
"Burnham and Highbridge","Burnham and Highbridge parkrun","TA8 1LU","TA","Taunton","TA8",51.226679,-2.990243
"Burnham-on-Crouch","Burnham-on-Crouch parkrun","CM0 8HA","CM","Chelmsford","CM0",51.627409,0.810923
"Burnley","Burnley parkrun","BB11 3DF","BB","Blackburn","BB11",53.77834,-2.221555
"Bury Field","Bury Field parkrun","MK16 8EU","MK","Milton Keynes","MK16",52.088015,-0.728725
"Bury St Edmunds","Bury St Edmunds parkrun","IP29 5BD","IP","Ipswich","IP29",52.224887,0.730183
"Bushy Park","Bushy parkrun","KT8 9BZ","KT","Kingston upon Thames","KT8",51.410992,-0.335791
"California Country","California Country parkrun","RG40 4XB","RG","Reading","RG40",51.379583,-0.867647
"Camperdown","Camperdown parkrun, Dundee","DD2 3ZB","DD","Dundee","DD2",56.483681,-3.030896
"Cannock Chase","Cannock Chase parkrun","WS12 4PW","WS","Walsall","WS12",52.73744,-1.99542
"Cannon Hill","Cannon Hill parkrun, Birmingham","B13 8RA","B","Birmingham","B13",52.452637,-1.89997
"Canons Park","Canons Park parkrun","HA8 6SE","HA","Harrow","HA8",51.612291,-0.296184
"Canterbury","Canterbury parkrun","CT2 7SR","CT","Canterbury","CT2",51.299468,1.057002
"Cardiff","Cardiff parkrun","CF14 2SD","CF","Cardiff","CF14",51.49736,-3.207107
"Carlisle","Carlisle parkrun","CA2 6JP","CA","Carlisle","CA2",54.886025,-2.963455
"Carlisle Park","Carlisle Park parkrun, Morpeth","NE61 1PR","NE","Newcastle upon Tyne","NE61",55.165172,-1.691159
"Carrickfergus","Carrickfergus parkrun","BT38 8XP","BT","Belfast","BT38",54.719992,-5.805285
"Cassiobury","Cassiobury parkrun","WD18 7BY","WD","Watford","WD18",51.657677,-0.406335
"Castle Park","Castle Park parkrun","CM23 2AY","CM","Chelmsford","CM23",51.87167,0.164165
"Castlewellan","Castlewellan parkrun","BT31 9BU","BT","Belfast","BT31",54.262147,-5.95386
"Catford","Catford parkrun","SE6 1AN","SE","South East London","SE6",51.44824,-0.00863
"Catton","Catton parkrun","NR6 7DB","NR","Norwich","NR6",52.656696,1.295507
"Central, Plymouth","Central parkrun, Plymouth","PL2 3DG","PL","Plymouth","PL2",50.385099,-4.151031
"Centre Vale","Centre Vale parkrun","OL14 5JT","OL","Oldham","OL14",53.718272,-2.102438
"Chadderton Hall","Chadderton Hall parkrun","OL9 0QP","OL","Oldham","OL9",53.554066,-2.158552
"Chalkwell Beach","Chalkwell Beach parkrun","SS0 8JH","SS","Southend-on-Sea","SS0",51.536925,0.676231
"Charlton","Charlton parkrun","SE7 8HY","SE","South East London","SE7",51.480751,0.041628
"Chasewater","Chasewater parkrun","WS8 7NL","WS","Walsall","WS8",52.661987,-1.944407
"Cheadle Hulme","Cheadle Hulme parkrun","SK8 1HT","SK","Stockport","SK8",53.379026,-2.210652
"Chelmsford Central","Chelmsford Central parkrun","CM1 1LQ","CM","Chelmsford","CM1",51.732577,0.464945
"Cheltenham","Cheltenham parkrun","GL50 4NL","GL","Gloucester","GL50",51.911754,-2.07824
"Chester","Chester parkrun","CH2 1BP","CH","Chester","CH2",53.207796,-2.902368
"Chevin Forest","Chevin Forest parkrun","LS21 3DD","LS","Leeds","LS21",53.894133,-1.665858
"Chichester","Chichester parkrun","PO19 6PF","PO","Portsmouth","PO19",50.846182,-0.777535
"Chilton Fields","Chilton Fields parkrun","IP14 1UL","IP","Ipswich","IP14",52.197076,0.975934
"Chippenham","Chippenham parkrun","SN15 1GH","SN","Swindon","SN15",51.460469,-2.113119
"Chippenham Playing Fields, Monmouth","Chippenham Playing Fields parkrun, Monmouth","NP25 5EY","NP","Newport","NP25",51.80783,-2.718161
"Chipping Norton School","Chipping Norton School parkrun","OX7 5EQ","OX","Oxford","OX7",51.93812,-1.54029
"Chipping Sodbury","Chipping Sodbury parkrun","BS37 6GA","BS","Bristol","BS37",51.544366,-2.397165
"Chopwell Wood","Chopwell Wood parkrun","NE39 2AG","NE","Newcastle upon Tyne","NE39",54.922026,-1.790884
"Church Mead","Church Mead parkrun","HP7 0JP","HP","Hemel Hempstead","HP7",51.667191,-0.614472
"Cirencester","Cirencester parkrun","GL7 6JR","GL","Gloucester","GL7",51.711207,-1.99109
"Citypark","Citypark parkrun, Craigavon","BT64 1AL","BT","Belfast","BT64",54.451093,-6.386002
"Clacton Seafront","Clacton Seafront parkrun","CO15 1NW","CO","Colchester","CO15",51.781574,1.142974
"Clair","Clair parkrun","RH16 3BU","RH","Redhill","RH16",51.004322,-0.100143
"Clapham Common","Clapham Common parkrun","SW4 9AP","SW","South West London","SW4",51.455873,-0.151331
"Clare Castle","Clare Castle parkrun","CO10 8NW","CO","Colchester","CO10",52.076428,0.581882
"Clarence","Clarence parkrun","BL9 5DH","BL","Bolton","BL9",53.604665,-2.289921
"Cleethorpes","Cleethorpes parkrun","DN35 0PD","DN","Doncaster","DN35",53.541552,-0.025384
"Clevedon Salthouse Fields","Clevedon Salthouse Fields parkrun","BS21 7TU","BS","Bristol","BS21",51.434573,-2.866505
"Cliffe Castle","Cliffe Castle parkrun","BD20 6LQ","BD","Bradford","BD20",53.874658,-1.913364
"Clifton","Clifton parkrun","NG11 8JW","NG","Nottingham","NG11",52.907144,-1.163033
"Clitheroe Castle","Clitheroe Castle parkrun","BB7 2JY","BB","Blackburn","BB7",53.870346,-2.39478
"Clumber Park","Clumber Park parkrun","S80 3BA","S","Sheffield","S80",53.268022,-1.065717
"Coed Cefn-pwll-du","Coed Cefn-pwll-du parkrun","CF83 8UH","CF","Cardiff","CF83",51.591855,-3.140954
"Colby","Colby parkrun","SA67 8PP","SA","Swansea","SA67",51.74064,-4.669924
"Colchester Castle","Colchester Castle parkrun","CO1 1UB","CO","Colchester","CO1",51.89167,0.902724
"Coldhams Common","Coldhams Common parkrun","CB5 8LY","CB","Cambridge","CB5",52.206705,0.158881
"Colin Glen","Colin Glen parkrun","BT11 9RB","BT","Belfast","BT11",54.570723,-6.020504
"Colney Lane","Colney Lane parkrun","NR4 7UE","NR","Norwich","NR4",52.621317,1.22519
"Colwick","Colwick parkrun","NG2 4BE","NG","Nottingham","NG2",52.945171,-1.09786
"Comber","Comber parkrun","BT23 5AR","BT","Belfast","BT23",54.549593,-5.740415
"Concord","Concord parkrun, Sheffield","S5 6AF","S","Sheffield","S5",53.424007,-1.441612
"Congleton","Congleton parkrun","CW12 4FR","CW","Crewe","CW12",53.160781,-2.229795
"Conkers","Conkers parkrun","DE12 6BA","DE","Derby","DE12",52.739475,-1.543021
"Conwy","Conwy parkrun","LL31 9XZ","LL","Llandudno","LL31",53.279388,-3.808966
"Conyngham Hall","Conyngham Hall parkrun","HG5 9AY","HG","Harrogate","HG5",54.011758,-1.479507
"Corby","Corby parkrun","NN17 1HA","NN","Northampton","NN17",52.493879,-0.691774
"Cosmeston Lakes","Cosmeston Lakes parkrun","CF64 5FB","CF","Cardiff","CF64",51.418047,-3.185615
"Cotsford Fields","Cotsford Fields parkrun","SR8 4HN","SR","Sunderland","SR8",54.759499,-1.30077
"Coventry","Coventry parkrun","CV3 6GJ","CV","Coventry","CV3",52.39172,-1.524026
"Cranbrook Country Park","Cranbrook Country Park parkrun","EX5 7BA","EX","Exeter","EX5",50.750746,-3.417858
"Crane Park","Crane Park parkrun","TW13 5QX","TW","Twickenham","TW13",51.441168,-0.372075
"Cranleigh","Cranleigh parkrun","GU6 8GL","GU","Guildford","GU6",51.13819,-0.49151
"Crathes Castle","Crathes Castle parkrun","AB31 5QJ","AB","Aberdeen","AB31",57.061178,-2.440954
"Crawfordsburn Country","Crawfordsburn Country parkrun","BT19 1XJ","BT","Belfast","BT19",54.666682,-5.729434
"Crewe","Crewe parkrun","CW2 7SN","CW","Crewe","CW2",53.097388,-2.470556
"Crichton","Crichton parkrun","DG1 4UQ","DG","Dumfries","DG1",55.050773,-3.594589
"Crosby","Crosby parkrun","L23 6AE","L","Liverpool","L23",53.48269,-3.046711
"Cross Flatts","Cross Flatts parkrun","LS11 7NA","LS","Leeds","LS11",53.775754,-1.55757
"Croxteth Hall","Croxteth Hall parkrun","L12 0HA","L","Liverpool","L12",53.44217,-2.891774
"Crystal Palace","Crystal Palace parkrun","SE20 8DT","SE","South East London","SE20",51.419846,-0.065703
"Cusworth Hall","Cusworth Hall parkrun","DN5 7TU","DN","Doncaster","DN5",53.529479,-1.177617
"Cwmbran","Cwmbran parkrun","NP44 2JJ","NP","Newport","NP44",51.656234,-3.013498
"Cyclopark","Cyclopark parkrun","DA11 8PH","DA","Dartford","DA11",51.419922,0.352561
"Dalby Forest","Dalby Forest parkrun","YO18 7LT","YO","York","YO18",54.273821,-0.686599
"Dallas Burston Polo Club","Dallas Burston Polo Club parkrun","CV47 2DW","CV","Coventry","CV47",52.25721,-1.417387
"Darlington South Park","Darlington South Park parkrun","DL1 5TG","DL","Darlington","DL1",54.51484,-1.560531
"Dartford","Dartford parkrun","DA1 1JP","DA","Dartford","DA1",51.439141,0.220166
"Dartford Heath","Dartford Heath parkrun","DA1 2PU","DA","Dartford","DA1",51.435932,0.189929
"Daventry","Daventry parkrun","NN11 0QB","NN","Northampton","NN11",52.262374,-1.15732
"Dean Castle Country Park","Dean Castle Country Park parkrun","KA3 1XB","KA","Kilmarnock","KA3",55.622901,-4.482932
"Delamere","Delamere parkrun","WA6 6NB","WA","Warrington","WA6",53.239537,-2.68796
"Denton Dene","Denton Dene parkrun","NE15 7HB","NE","Newcastle upon Tyne","NE15",54.977492,-1.694872
"Derry City","Derry City parkrun","BT48 7NY","BT","Belfast","BT48",55.006966,-7.318933
"Derrynoid Forest","Derrynoid Forest parkrun","BT45 7DW","BT","Belfast","BT45",54.802964,-6.810505
"Dewsbury","Dewsbury parkrun","WF13 2SG","WF","Wakefield","WF13",53.688239,-1.646237
"Didcot","Didcot parkrun","OX11 7UN","OX","Oxford","OX11",51.612792,-1.239
"Dinton Pastures","Dinton Pastures parkrun","RG41 5TU","RG","Reading","RG41",51.440292,-0.880056
"Dishley, Loughborough","Dishley parkrun, Loughborough","LE11 5TF","LE","Leicester","LE11",52.787485,-1.234785
"Doddington Hall","Doddington Hall parkrun","LN6 4RX","LN","Lincoln","LN6",53.222149,-0.650558
"Dolgellau","Dolgellau parkrun","LL40 1DL","LL","Llandudno","LL40",52.744574,-3.886527
"Dover Waterfront","Dover Waterfront parkrun","CT17 9FS","CT","Canterbury","CT17",51.119994,1.313027
"Downham Market Academy","Downham Market Academy parkrun","PE38 9LL","PE","Peterborough","PE38",52.6034,0.389471
"Drumchapel","Drumchapel parkrun","G15 7NH","G","Glasgow","G15",55.91688,-4.350674
"Drumpellier Country","Drumpellier Country parkrun","ML5 2EH","ML","Motherwell","ML5",55.871588,-4.065615
"Druridge Bay","Druridge Bay parkrun","NE61 5BX","NE","Newcastle upon Tyne","NE61",55.292765,-1.572348
"Dudley","Dudley parkrun","DY5 4NE","DY","Dudley","DY5",52.490027,-2.134568
"Dulwich","Dulwich parkrun","SE21 7ET","SE","South East London","SE21",51.443869,-0.079206
"Dunfermline","Dunfermline parkrun","KY12 8AN","KY","Kirkcaldy","KY12",56.070684,-3.470694
"Dungannon Park","Dungannon Park parkrun","BT71 7QS","BT","Belfast","BT71",54.489432,-6.755359
"Dunleath Playing Fields","Dunleath Playing Fields parkrun","BT30 6BH","BT","Belfast","BT30",54.323473,-5.718077
"Dunstable Downs","Dunstable Downs parkrun","LU6 2GY","LU","Luton","LU6",51.865432,-0.537791
"Durham","Durham parkrun","DH1 3SE","DH","Durham","DH1",54.767605,-1.558852
"Durlston Country Park","Durlston Country Park parkrun","BH19 2JL","BH","Bournemouth","BH19",50.595211,-1.954023
"East Brighton","East Brighton parkrun","BN2 5UA","BN","Brighton","BN2",50.818691,-0.099373
"East Grinstead","East Grinstead parkrun","RH19 3YW","RH","Redhill","RH19",51.129008,0.001373
"East Park","East Park parkrun","WV2 2JJ","WV","Wolverhampton","WV2",52.579042,-2.101975
"Eastbourne","Eastbourne parkrun","BN23 8DX","BN","Brighton","BN23",50.806248,0.290451
"Eastleigh","Eastleigh parkrun","SO50 9YX","SO","Southampton","SO50",50.971433,-1.374032
"Eastville","Eastville parkrun","BS5 6PX","BS","Bristol","BS5",51.475453,-2.554304
"Ecos","Ecos parkrun, Ballymena","BT43 7QA","BT","Belfast","BT43",54.867371,-6.259117
"Eden Project","Eden Project parkrun","PL24 2SG","PL","Plymouth","PL24",50.358315,-4.74285
"Edenbrook Country","Edenbrook Country parkrun","GU51 5DW","GU","Guildford","GU51",51.280199,-0.867088
"Edgbaston Reservoir","Edgbaston Reservoir parkrun","B16 9DJ","B","Birmingham","B16",52.476722,-1.936437
"Edinburgh","Edinburgh parkrun","EH4 6QU","EH","Edinburgh","EH4",55.978806,-3.291585
"Eglinton","Eglinton parkrun","KA13 7QD","KA","Kilmarnock","KA13",55.643935,-4.669662
"Elder Park","Elder Park parkrun","G51 3PB","G","Glasgow","G51",55.863235,-4.32197
"Elgin","Elgin parkrun","IV30 4LU","IV","Inverness","IV30",57.653393,-3.313072
"Ellesmere Port","Ellesmere Port parkrun","CH65 6QY","CH","Chester","CH65",53.272524,-2.902542
"Ellon","Ellon parkrun","AB41 8LF","AB","Aberdeen","AB41",57.359262,-2.056968
"Endcliffe","Endcliffe parkrun","S10 3FQ","S","Sheffield","S10",53.368631,-1.507364
"Enniskillen","Enniskillen parkrun","BT74 7HJ","BT","Belfast","BT74",54.343834,-7.642293
"Epworth Equestrian","Epworth Equestrian parkrun","DN9 1LQ","DN","Doncaster","DN9",53.539368,-0.87384
"Erddig","Erddig parkrun","LL13 0YT","LL","Llandudno","LL13",53.027137,-3.006833
"Erskine Waterfront","Erskine Waterfront parkrun","PA8 7BF","PA","Paisley","PA8",55.907749,-4.447774
"Evesham","Evesham parkrun","WR11 2FW","WR","Worcester","WR11",52.090191,-1.958122
"Exeter Riverside","Exeter Riverside parkrun","EX2 8DY","EX","Exeter","EX2",50.713762,-3.525833
"Exmouth","Exmouth parkrun","EX8 2AZ","EX","Exeter","EX8",50.614697,-3.412392
"Falkirk","Falkirk parkrun","FK1 1YR","FK","Falkirk","FK1",55.99543,-3.766712
"Falls","Falls parkrun, Belfast","BT11 8AD","BT","Belfast","BT11",54.586363,-5.978879
"Fareham","Fareham parkrun","PO16 8UB","PO","Portsmouth","PO16",50.848448,-1.167385
"Faskally Forest","Faskally Forest parkrun","PH16 5NF","PH","Perth","PH16",56.7118,-3.767296
"Felixstowe","Felixstowe parkrun","IP11 2AE","IP","Ipswich","IP11",51.957778,1.345741
"Fell Foot","Fell Foot parkrun, Newby Bridge","LA12 8NN","LA","Lancaster","LA12",54.274736,-2.952259
"Ferry Meadows","Ferry Meadows parkrun","PE2 5UU","PE","Peterborough","PE2",52.565563,-0.308132
"Finsbury Park","Finsbury parkrun","N4 3EU","N","North London","N4",51.569595,-0.104145
"Five Arches","Five Arches parkrun","BA3 3RL","BA","Bath","BA3",51.292354,-2.452787
"Flatts Lane","Flatts Lane parkrun","TS6 0NN","TS","Teesside","TS6",54.543872,-1.151741
"Fleetwood Promenade","Fleetwood Promenade parkrun","FY7 6HE","FY","Blackpool","FY7",53.927366,-3.016919
"Flegg High","Flegg High parkrun","NR29 4QE","NR","Norwich","NR29",52.713022,1.640492
"Fletcher Moss","Fletcher Moss parkrun","M20 2RQ","M","Manchester","M20",53.40999,-2.23551
"Folkestone","Folkestone parkrun","CT20 2DZ","CT","Canterbury","CT20",51.075729,1.172753
"Foots Cray Meadows","Foots Cray Meadows parkrun","DA14 4PU","DA","Dartford","DA14",51.432103,0.133269
"Ford","Ford parkrun","LA12 7FT","LA","Lancaster","LA12",54.198427,-3.088135
"Forest Rec","Forest Rec parkrun","NG1 4HH","NG","Nottingham","NG1",52.965352,-1.159766
"Forest of Dean","Forest of Dean parkrun","GL16 7JU","GL","Gloucester","GL16",51.808701,-2.605219
"Forfar Loch","Forfar Loch parkrun","DD8 1RL","DD","Dundee","DD8",56.642663,-2.908213
"Fort William","Fort William parkrun","PH33 6SQ","PH","Perth","PH33",56.851484,-4.999161
"Fountains Abbey","Fountains Abbey parkrun","HG4 3DZ","HG","Harrogate","HG4",54.110196,-1.581983
"Frickley Country","Frickley Country parkrun","WF9 2GE","WF","Wakefield","WF9",53.588573,-1.290457
"Frimley Lodge","Frimley Lodge parkrun","GU16 6NS","GU","Guildford","GU16",51.298622,-0.724851
"Frogmary Green Farm","Frogmary Green Farm parkrun","TA13 5LZ","TA","Taunton","TA13",50.941688,-2.824426
"Fulbourn Hospital","Fulbourn Hospital parkrun","CB1 9YJ","CB","Cambridge","CB1",52.184131,0.186094
"Fulham Palace","Fulham Palace parkrun","SW6 6ER","SW","South West London","SW6",51.472465,-0.218493
"Gadebridge","Gadebridge parkrun","HP1 3AB","HP","Hemel Hempstead","HP1",51.758909,-0.473542
"Ganavan Sands","Ganavan Sands parkrun","PA34 5TB","PA","Paisley","PA34",56.437766,-5.469021
"Ganger Farm","Ganger Farm parkrun","SO51 0EE","SO","Southampton","SO51",51.009374,-1.464821
"Garvagh Forest","Garvagh Forest parkrun","BT51 5AN","BT","Belfast","BT51",54.977416,-6.695537
"Gateshead","Gateshead parkrun","NE9 5AX","NE","Newcastle upon Tyne","NE9",54.944733,-1.602094
"Gedling","Gedling parkrun","NG3 5UZ","NG","Nottingham","NG3",52.993919,-1.087124
"Girvan Prom","Girvan Prom parkrun","KA26 9AJ","KA","Kilmarnock","KA26",55.243994,-4.862538
"Gladstone","Gladstone parkrun","NW2 6AY","NW","North West London","NW2",51.556982,-0.228223
"Glossop","Glossop parkrun","SK13 7GD","SK","Stockport","SK13",53.447019,-1.939503
"Gloucester City","Gloucester City parkrun","GL1 4UQ","GL","Gloucester","GL1",51.858707,-2.243129
"Gloucester North","Gloucester North parkrun","GL1 3LT","GL","Gloucester","GL1",51.878304,-2.231707
"Gnoll","Gnoll parkrun","SA11 3BS","SA","Swansea","SA11",51.661114,-3.788616
"Goole","Goole parkrun","DN14 6UU","DN","Doncaster","DN14",53.710492,-0.891098
"Gorleston Cliffs","Gorleston Cliffs parkrun","NR31 6DU","NR","Norwich","NR31",52.567806,1.73069
"Grangemoor","Grangemoor parkrun","CF11 0AE","CF","Cardiff","CF11",51.454464,-3.192412
"Graves","Graves parkrun","S8 8LJ","S","Sheffield","S8",53.338906,-1.464657
"Great Cornard","Great Cornard parkrun","CO10 0JR","CO","Colchester","CO10",52.02463,0.751362
"Great Denham","Great Denham parkrun","MK40 4SQ","MK","Milton Keynes","MK40",52.121602,-0.509062
"Great Dunmow","Great Dunmow parkrun","CM6 2AB","CM","Chelmsford","CM6",51.878681,0.3627
"Great Lines","Great Lines parkrun, Medway","ME7 5HH","ME","Medway","ME7",51.388527,0.541334
"Great Notley","Great Notley parkrun","CM77 7FS","CM","Chelmsford","CM77",51.864147,0.51584
"Great Salterns","Great Salterns parkrun","PO3 6QA","PO","Portsmouth","PO3",50.809385,-1.046606
"Great Yarmouth North Beach","Great Yarmouth North Beach parkrun","NR30 1EQ","NR","Norwich","NR30",52.613141,1.73892
"Greenfield Valley","Greenfield Valley parkrun","CH8 7PD","CH","Chester","CH8",53.275044,-3.220992
"Greenock","Greenock parkrun","PA16 7XH","PA","Paisley","PA16",55.956525,-4.767348
"Greenwich","Greenwich parkrun","SE9 2PQ","SE","South East London","SE9",51.449459,0.075155
"Groe","Groe parkrun","LD2 3BG","LD","Llandrindod Wells","LD2",52.150418,-3.403113
"Grove Fields","Grove Fields parkrun","OX12 9NS","OX","Oxford","OX12",51.600059,-1.425256
"Grovelands","Grovelands parkrun, Enfield","N14 6QY","N","North London","N14",51.633076,-0.113769
"Guildford","Guildford parkrun","GU1 1UP","GU","Guildford","GU1",51.247383,-0.562062
"Gunnersbury","Gunnersbury parkrun","W5 4NH","W","West London","W5",51.499405,-0.292253
"Gunpowder","Gunpowder parkrun","EN9 3XN","EN","Enfield","EN9",51.676037,-0.000831
"Hackney Marshes","Hackney Marshes parkrun","E9 5EF","E","East London","E9",51.553686,-0.025368
"Hackworth","Hackworth parkrun","DL4 1NJ","DL","Darlington","DL4",54.628071,-1.644945
"Hadleigh","Hadleigh parkrun, Essex","SS7 2QH","SS","Southend-on-Sea","SS7",51.549769,0.59606
"Hafan Pwllheli","Hafan Pwllheli parkrun","LL53 5YT","LL","Llandudno","LL53",52.888538,-4.402811
"Haigh Woodland","Haigh Woodland parkrun","WN2 1PE","WN","Wigan","WN2",53.572714,-2.609519
"Haldon Forest","Haldon Forest parkrun","EX6 7XR","EX","Exeter","EX6",50.653392,-3.579359
"Halifax","Halifax parkrun","HX3 5BX","HX","Halifax","HX3",53.731746,-1.873871
"Hampstead Heath","Hampstead Heath parkrun","NW3 1TH","NW","North West London","NW3",51.558598,-0.168185
"Hamsterley Forest","Hamsterley Forest parkrun","DL13 3QH","DL","Darlington","DL13",54.675593,-1.858786
"Hanley","Hanley parkrun","ST4 2BZ","ST","Stoke-on-Trent","ST4",53.012501,-2.175164
"Hanworth","Hanworth parkrun","TW13 7EY","TW","Twickenham","TW13",51.43874,-0.398287
"Harcourt Hill","Harcourt Hill parkrun","OX2 9GR","OX","Oxford","OX2",51.739369,-1.295191
"Harleston Magpies","Harleston Magpies parkrun","IP21 5UD","IP","Ipswich","IP21",52.384367,1.295457
"Harlow","Harlow parkrun","CM20 2QB","CM","Chelmsford","CM20",51.77766,0.103624
"Harrogate","Harrogate parkrun","HG2 7RZ","HG","Harrogate","HG2",53.992428,-1.521435
"Harrow","Harrow parkrun","HA1 1PA","HA","Harrow","HA1",51.581781,-0.342734
"Harrow Lodge","Harrow Lodge parkrun","RM12 4QU","RM","Romford","RM12",51.555606,0.200715
"Hartlepool","Hartlepool parkrun","TS24 0SP","TS","Teesside","TS24",54.686937,-1.195128
"Harwich","Harwich parkrun","CO12 3LG","CO","Colchester","CO12",51.938035,1.284809
"Hastings","Hastings parkrun","TN38 0AG","TN","Tunbridge Wells","TN38",50.850291,0.539739
"Hastings High School","Hastings High School parkrun","LE10 2QE","LE","Leicester","LE10",52.53526,-1.356127
"Havant","Havant parkrun","PO9 5HD","PO","Portsmouth","PO9",50.875771,-0.975565
"Haverfordwest","Haverfordwest parkrun","SA61 1DW","SA","Swansea","SA61",51.797163,-4.992836
"Haverhill","Haverhill parkrun","CB9 8FE","CB","Cambridge","CB9",52.076737,0.422212
"Hay Lodge","Hay Lodge parkrun","EH45 8JG","EH","Edinburgh","EH45",55.651659,-3.199586
"Hazelwood","Hazelwood parkrun","TW16 6QU","TW","Twickenham","TW16",51.405783,-0.421045
"Hazlehead","Hazlehead parkrun, Aberdeen","AB15 8BJ","AB","Aberdeen","AB15",57.141371,-2.175647
"Heartlands","Heartlands parkrun","TR15 3FS","TR","Truro","TR15",50.224177,-5.2715
"Heaton Park","Heaton parkrun","M25 2SW","M","Manchester","M25",53.531975,-2.256263
"Henley Wood, Oswestry","Henley Wood parkrun, Oswestry","SY11 2YG","SY","Shrewsbury","SY11",52.862542,-3.030368
"Henley-on-Thames","Henley-on-Thames parkrun","RG9 1RL","RG","Reading","RG9",51.531978,-0.919288
"Henlow Bridge Lakes","Henlow Bridge Lakes parkrun","SG16 6LN","SG","Stevenage","SG16",52.030537,-0.268787
"Hereford","Hereford parkrun","HR4 9RT","HR","Hereford","HR4",52.068892,-2.724152
"Herrington Country","Herrington Country parkrun","DH4 7NJ","DH","Durham","DH4",54.876573,-1.476809
"Heslington","Heslington parkrun","YO10 5FG","YO","York","YO10",53.949319,-1.01799
"Higginson, Marlow","Higginson parkrun, Marlow","SL7 2AJ","SL","Slough","SL7",51.566268,-0.779573
"Highbury Fields","Highbury Fields parkrun","N5 1QZ","N","North London","N5",51.546959,-0.102884
"Highwoods","Highwoods parkrun","CO4 9RQ","CO","Colchester","CO4",51.904682,0.917561
"Hillsborough","Hillsborough parkrun","S6 4HE","S","Sheffield","S6",53.408457,-1.501973
"Hillsborough Forest","Hillsborough Forest parkrun","BT26 6AY","BT","Belfast","BT26",54.461336,-6.076662
"Hilly Fields","Hilly Fields parkrun","SE4 1LD","SE","South East London","SE4",51.460143,-0.025019
"Hoblingwell","Hoblingwell parkrun","BR5 2QE","BR","Bromley","BR5",51.400981,0.098847
"Hockley Woods","Hockley Woods parkrun","SS5 4QA","SS","Southend-on-Sea","SS5",51.596133,0.64912
"Hogmoor Inclosure","Hogmoor Inclosure parkrun","GU35 9FX","GU","Guildford","GU35",51.111681,-0.875934
"Holbrooks","Holbrooks parkrun","CV6 4BY","CV","Coventry","CV6",52.439154,-1.509052
"Holkham","Holkham parkrun","NR23 1AB","NR","Norwich","NR23",52.950159,0.801022
"Holy Cross College","Holy Cross College parkrun","BT82 9LG","BT","Belfast","BT82",54.815718,-7.477408
"Holyrood","Holyrood parkrun","EH8 8JA","EH","Edinburgh","EH8",55.952167,-3.162844
"Homewood","Homewood parkrun","KT16 0NT","KT","Kingston upon Thames","KT16",51.366808,-0.539078
"Horsham","Horsham parkrun","RH12 1BA","RH","Redhill","RH12",51.06651,-0.327908
"Horspath","Horspath parkrun","OX4 2RL","OX","Oxford","OX4",51.737281,-1.188165
"Horton Park","Horton Park parkrun","BD7 3BW","BD","Bradford","BD7",53.782455,-1.77538
"Houghton Hall","Houghton Hall parkrun","LU5 5FU","LU","Luton","LU5",51.90155,-0.510046
"Hove Promenade","Hove Promenade parkrun","BN3 2FR","BN","Brighton","BN3",50.823391,-0.166594
"Huddersfield","Huddersfield parkrun","HD1 4HP","HD","Huddersfield","HD1",53.650608,-1.800685
"Hull","Hull parkrun","HU8 8JU","HU","Hull","HU8",53.764645,-0.300708
"Humber Bridge","Humber Bridge parkrun","HU13 0EP","HU","Hull","HU13",53.71723,-0.453352
"Hunstanton Promenade","Hunstanton Promenade parkrun","PE36 6GB","PE","Peterborough","PE36",52.941684,0.486526
"Huntingdon","Huntingdon parkrun","PE29 6DB","PE","Peterborough","PE29",52.330591,-0.213662
"Hyde","Hyde parkrun","SK14 2AE","SK","Stockport","SK14",53.45713,-2.076554
"Hyndburn","Hyndburn parkrun","BB5 5SF","BB","Blackburn","BB5",53.781711,-2.376734
"Ifield Mill Pond","Ifield Mill Pond parkrun","RH11 8JX","RH","Redhill","RH11",51.107508,-0.218863
"Ipswich","Ipswich parkrun","IP2 0TA","IP","Ipswich","IP2",52.050923,1.116032
"Irchester Country","Irchester Country parkrun","NN29 7UG","NN","Northampton","NN29",52.285076,-0.673649
"Isabel Trail","Isabel Trail parkrun","ST16 2EW","ST","Stoke-on-Trent","ST16",52.808242,-2.125953
"Itchen Valley Country","Itchen Valley Country parkrun","SO30 3HS","SO","Southampton","SO30",50.944849,-1.341722
"Jersey Farm","Jersey Farm parkrun","AL4 9LQ","AL","St Albans","AL4",51.773718,-0.307978
"Jesmond Dene","Jesmond Dene parkrun","NE7 7BQ","NE","Newcastle upon Tyne","NE7",54.99188,-1.592839
"Jubilee","Jubilee parkrun","DL16 6RR","DL","Darlington","DL16",54.701073,-1.604602
"Kesgrave","Kesgrave parkrun","IP5 2BD","IP","Ipswich","IP5",52.058138,1.257741
"Keswick","Keswick parkrun","CA12 4NQ","CA","Carlisle","CA12",54.603863,-3.129497
"Kettering","Kettering parkrun","NN15 6LY","NN","Northampton","NN15",52.384226,-0.710653
"Kew Woods","Kew Woods parkrun","PR8 4HX","PR","Preston","PR8",53.629073,-2.995064
"Killerton","Killerton parkrun","EX5 3LE","EX","Exeter","EX5",50.792835,-3.455007
"Kings Lynn","Kings Lynn parkrun","PE30 2QS","PE","Peterborough","PE30",52.752762,0.407446
"King George V Playing Field","King George V Playing Field parkrun, Cheltenham","GL51 7NR","GL","Gloucester","GL51",51.901883,-2.110018
"Kingdom","Kingdom parkrun","TN11 8DU","TN","Tunbridge Wells","TN11",51.162408,0.162768
"Kingsbury Water","Kingsbury Water parkrun","B76 0DY","B","Birmingham","B76",52.561983,-1.698718
"Kingston","Kingston parkrun","KT2 5BH","KT","Kingston upon Thames","KT2",51.426567,-0.309516
"Kingsway","Kingsway parkrun, Gloucester","GL2 2AZ","GL","Gloucester","GL2",51.821487,-2.272804
"Kirkcaldy","Kirkcaldy parkrun","KY1 1PN","KY","Kirkcaldy","KY1",56.104087,-3.169549
"Kirkwall","Kirkwall parkrun","KW15 1LJ","KW","Kirkwall","KW15",58.982282,-2.948069
"Knockbracken Reservoir","Knockbracken Reservoir parkrun","BT8 8GB","BT","Belfast","BT8",54.524392,-5.892928
"Knowsley","Knowsley parkrun","L35 3TJ","L","Liverpool","L35",53.411116,-2.811654
"Lanark Moor","Lanark Moor parkrun","ML11 9BJ","ML","Motherwell","ML11",55.666318,-3.750284
"Lancaster","Lancaster parkrun","LA1 1UX","LA","Lancaster","LA1",54.04568,-2.781183
"Lancing Beach Green","Lancing Beach Green parkrun","BN15 8BG","BN","Brighton","BN15",50.820591,-0.323792
"Lands End","Lands End parkrun","TR19 7AA","TR","Truro","TR19",50.066127,-5.714096
"Lanhydrock","Lanhydrock parkrun","PL30 4DE","PL","Plymouth","PL30",50.441131,-4.69614
"Largs Prom","Largs Prom parkrun","KA30 8PQ","KA","Kilmarnock","KA30",55.802062,-4.873064
"Larne","Larne parkrun","BT40 2QG","BT","Belfast","BT40",54.88843,-5.843595
"Leamington","Leamington parkrun","CV31 1LA","CV","Coventry","CV31",52.28714,-1.504655
"Leavesden Country","Leavesden Country parkrun","WD5 0GU","WD","Watford","WD5",51.704924,-0.403599
"Leazes","Leazes parkrun","NE4 6BB","NE","Newcastle upon Tyne","NE4",54.977078,-1.625633
"Lee-on-the-Solent","Lee-on-the-Solent parkrun","PO13 9LB","PO","Portsmouth","PO13",50.801087,-1.20383
"Leicester Victoria","Leicester Victoria parkrun","LE1 7RJ","LE","Leicester","LE1",52.620954,-1.121659
"Letchworth","Letchworth parkrun","SG6 4PN","SG","Stevenage","SG6",51.999895,-0.22279
"Levengrove","Levengrove parkrun","G82 4AY","G","Glasgow","G82",55.940721,-4.57567
"Lews Castle","Lews Castle parkrun","HS1 2XS","HS","Hebrides","HS1",58.207899,-6.396894
"Limavady","Limavady parkrun","BT49 0AQ","BT","Belfast","BT49",55.047128,-6.944777
"Limepark Playing Fields","Limepark Playing Fields parkrun","BT53 8XJ","BT","Belfast","BT53",55.123827,-6.32179
"Lincoln","Lincoln parkrun","LN6 7PH","LN","Lincoln","LN6",53.208848,-0.560904
"Linford Wood","Linford Wood parkrun","MK14 6GZ","MK","Milton Keynes","MK14",52.05864,-0.760168
"Lingwood","Lingwood parkrun","NR13 4BE","NR","Norwich","NR13",52.618901,1.493528
"Linwood","Linwood parkrun","PA3 3TQ","PA","Paisley","PA3",55.854033,-4.505078
"Littlehampton Prom","Littlehampton Prom parkrun","BN17 5LH","BN","Brighton","BN17",50.802284,-0.541939
"Littleport","Littleport parkrun","CB6 1JN","CB","Cambridge","CB6",52.463048,0.299342
"Livingston","Livingston parkrun","EH54 6WF","EH","Edinburgh","EH54",55.886797,-3.518828
"Llanerchaeron","Llanerchaeron parkrun","SA48 8DQ","SA","Swansea","SA48",52.220443,-4.235798
"Llanishen Park","Llanishen Park parkrun","CF14 5EE","CF","Cardiff","CF14",51.529533,-3.196302
"Lloyd","Lloyd parkrun, Croydon","CR0 5RA","CR","Croydon","CR0",51.364807,-0.079973
"Llyn Llech Owain","Llyn Llech Owain parkrun","SA14 7NF","SA","Swansea","SA14",51.812913,-4.080563
"Loch Leven","Loch Leven parkrun","KY13 9HD","KY","Kirkcaldy","KY13",56.219434,-3.358085
"Loch Neaton","Loch Neaton parkrun, Watton","IP25 6HE","IP","Ipswich","IP25",52.577558,0.8274
"Lochend Woods","Lochend Woods parkrun","EH42 1QZ","EH","Edinburgh","EH42",55.997214,-2.521501
"Lochore Meadows","Lochore Meadows parkrun","KY5 8BA","KY","Kirkcaldy","KY5",56.150699,-3.33708
"Long Eaton","Long Eaton parkrun","NG10 3NP","NG","Nottingham","NG10",52.895155,-1.285853
"Longrun Meadow","Longrun Meadow parkrun","TA1 1NW","TA","Taunton","TA1",51.018755,-3.114989
"Lordship Recreation Ground","Lordship Recreation Ground parkrun","N17 6BQ","N","North London","N17",51.594341,-0.086951
"Lowestoft","Lowestoft parkrun","NR33 0QG","NR","Norwich","NR33",52.468286,1.747338
"Ludlow","Ludlow parkrun","SY8 2HF","SY","Shrewsbury","SY8",52.353284,-2.773078
"Lullingstone","Lullingstone parkrun","DA4 0JF","DA","Dartford","DA4",51.353118,0.187147
"Luton Wardown","Luton Wardown parkrun","LU3 1LE","LU","Luton","LU3",51.889853,-0.420917
"Lydiard","Lydiard parkrun","SN5 3PA","SN","Swindon","SN5",51.561489,-1.853621
"Lydney","Lydney parkrun","GL15 5PU","GL","Gloucester","GL15",51.721613,-2.52648
"Lyme Park","Lyme Park parkrun","SK12 2NX","SK","Stockport","SK12",53.337193,-2.058402
"Lymington Woodside","Lymington Woodside parkrun","SO41 8AA","SO","Southampton","SO41",50.747747,-1.54548
"Lytham Hall","Lytham Hall parkrun","FY8 4JZ","FY","Blackpool","FY8",53.744855,-2.977613
"MUSA Cookstown","MUSA Cookstown parkrun","BT80 8SG","BT","Belfast","BT80",54.615093,-6.735656
"Macclesfield","Macclesfield parkrun","SK11 8AS","SK","Stockport","SK11",53.251413,-2.1303
"Maesteg","Maesteg parkrun","CF34 9PG","CF","Cardiff","CF34",51.609499,-3.665573
"Maidenhead","Maidenhead parkrun","SL6 1DX","SL","Slough","SL6",51.51095,-0.712135
"Maidstone","Maidstone parkrun","ME14 3AS","ME","Medway","ME14",51.29641,0.507689
"Maldon Prom","Maldon Prom parkrun","CM9 5JZ","CM","Chelmsford","CM9",51.726742,0.68877
"Mallards Pike","Mallards Pike parkrun","GL15 4HD","GL","Gloucester","GL15",51.784666,-2.528555
"Malling","Malling parkrun","ME20 6JA","ME","Medway","ME20",51.31537,0.437343
"Manor Field, Whittlesey","Manor Field parkrun, Whittlesey","PE7 1WA","PE","Peterborough","PE7",52.551869,-0.125941
"Mansfield","Mansfield parkrun","NG19 8QF","NG","Nottingham","NG19",53.174034,-1.183844
"March","March parkrun","PE15 8DR","PE","Peterborough","PE15",52.550069,0.086208
"Margate","Margate parkrun","CT9 2JN","CT","Canterbury","CT9",51.39207,1.403997
"Marine Parade","Marine Parade parkrun","BS23 4NH","BS","Bristol","BS23",51.334997,-2.983828
"Markeaton","Markeaton parkrun","DE22 3BG","DE","Derby","DE22",52.935408,-1.504769
"Market Bosworth Country Park","Market Bosworth Country Park parkrun","CV13 0LP","CV","Coventry","CV13",52.623664,-1.391946
"Market Harborough","Market Harborough parkrun","LE16 9DW","LE","Leicester","LE16",52.474487,-0.924979
"Market Rasen Racecourse","Market Rasen Racecourse parkrun","LN8 3EA","LN","Lincoln","LN8",53.380502,-0.309019
"Markshall Estate","Markshall Estate parkrun","CO6 1TG","CO","Colchester","CO6",51.897737,0.673757
"Marlborough Common","Marlborough Common parkrun","SN8 1DL","SN","Swindon","SN8",51.42448,-1.732581
"Marple","Marple parkrun","SK6 5EX","SK","Stockport","SK6",53.404476,-2.056509
"Marshall Drive","Marshall Drive parkrun, Brotton","TS12 2RQ","TS","Teesside","TS12",54.574096,-0.947956
"Maryport Prom","Maryport Prom parkrun","CA15 6AX","CA","Carlisle","CA15",54.7171,-3.50107
"Meadowmill","Meadowmill parkrun","EH32 9EY","EH","Edinburgh","EH32",55.954249,-2.966242
"Medina I.O.W.","Medina I.O.W. parkrun","PO30 5XH","PO","Portsmouth","PO30",50.711823,-1.286999
"Melksham","Melksham parkrun","SN12 7ED","SN","Swindon","SN12",51.377226,-2.136235
"Melton Mowbray","Melton Mowbray parkrun","LE13 1HP","LE","Leicester","LE13",52.780002,-0.879068
"Mersea Island","Mersea Island parkrun","CO5 8UE","CO","Colchester","CO5",51.79164,0.99368
"Merthyr","Merthyr parkrun","CF48 1UT","CF","Cardiff","CF48",51.73896,-3.375658
"Middleton Woods","Middleton Woods parkrun","LS10 3TN","LS","Leeds","LS10",53.751892,-1.557233
"Mildenhall Hub","Mildenhall Hub parkrun","IP28 7JX","IP","Ipswich","IP28",52.342792,0.499399
"Mile End","Mile End parkrun","E14 7SX","E","East London","E14",51.518169,-0.033946
"Milford Waterfront","Milford Waterfront parkrun","SA73 3BB","SA","Swansea","SA73",51.710763,-5.031507
"Millennium Country","Millennium Country parkrun, Forest of Marston Vale","MK43 0PR","MK","Milton Keynes","MK43",52.065265,-0.534082
"Millfield","Millfield parkrun","YO61 3AZ","YO","York","YO61",54.125154,-1.190864
"Millhouses","Millhouses parkrun","S8 0EB","S","Sheffield","S8",53.338516,-1.505027
"Millom","Millom parkrun","LA18 5AB","LA","Lancaster","LA18",54.21399,-3.26996
"Milton Country","Milton Country parkrun","CB24 6PP","CB","Cambridge","CB24",52.236675,0.161906
"Milton Keynes","Milton Keynes parkrun","MK15 9HQ","MK","Milton Keynes","MK15",52.05011,-0.722984
"Minehead","Minehead parkrun","TA24 5AP","TA","Taunton","TA24",51.207524,-3.469591
"Mole Valley","Mole Valley parkrun","RH5 6AA","RH","Redhill","RH5",51.248259,-0.330645
"Monsal Trail","Monsal Trail parkrun","DE45 1NW","DE","Derby","DE45",53.230788,-1.675286
"Montrose","Montrose parkrun","DD10 8UD","DD","Dundee","DD10",56.726297,-2.455223
"Moors Valley","Moors Valley parkrun","BH24 2ET","BH","Bournemouth","BH24",50.85124,-1.849419
"Morecambe Prom","Morecambe Prom parkrun","LA3 1BS","LA","Lancaster","LA3",54.065082,-2.885102
"Mote Park","Mote Park parkrun","ME14 5PP","ME","Medway","ME14",51.269539,0.541967
"Mount Edgcumbe","Mount Edgcumbe parkrun","PL10 1HT","PL","Plymouth","PL10",50.357664,-4.175493
"Mount Stuart","Mount Stuart parkrun","PA20 9LR","PA","Paisley","PA20",55.792888,-5.019453
"Muncaster Castle","Muncaster Castle parkrun","CA18 1RD","CA","Carlisle","CA18",54.357004,-3.388267
"Myrtle","Myrtle parkrun","BD16 2LP","BD","Bradford","BD16",53.846344,-1.838295
"Nant y Pandy","Nant y Pandy parkrun","LL77 7EA","LL","Llandudno","LL77",53.257642,-4.313233
"Netley Abbey","Netley Abbey parkrun","SO31 4TS","SO","Southampton","SO31",50.865345,-1.334453
"New Earswick","New Earswick parkrun","YO32 4BD","YO","York","YO32",53.99025,-1.077677
"Newark","Newark parkrun","NG24 4AU","NG","Nottingham","NG24",53.070031,-0.81905
"Newbiggin-by-the-Sea","Newbiggin-by-the-Sea parkrun","NE64 6DB","NE","Newcastle upon Tyne","NE64",55.185215,-1.505386
"Newborough Forest","Newborough Forest parkrun","LL61 6SG","LL","Llandudno","LL61",53.144163,-4.386757
"Newbury","Newbury parkrun","RG19 6HX","RG","Reading","RG19",51.378426,-1.292267
"Newent","Newent parkrun, Forest of Dean","GL18 1PX","GL","Gloucester","GL18",51.926515,-2.410056
"Newport","Newport parkrun","NP10 8SB","NP","Newport","NP10",51.559479,-3.030939
"Newtown","Newtown parkrun","SY16 2NZ","SY","Shrewsbury","SY16",52.514658,-3.319012
"Nonsuch","Nonsuch parkrun","SM3 8AL","SM","Sutton","SM3",51.356926,-0.231078
"Normanby Hall","Normanby Hall parkrun","DN15 9HU","DN","Doncaster","DN15",53.638407,-0.659924
"North Walsham","North Walsham parkrun","NR28 9AY","NR","Norwich","NR28",52.818216,1.391589
"North Yorkshire Water Park","North Yorkshire Water Park parkrun","YO13 9RA","YO","York","YO13",54.227812,-0.482836
"Northala Fields","Northala Fields parkrun","UB5 5QB","UB","Southall","UB5",51.541272,-0.376711
"Northallerton","Northallerton parkrun","DL6 2FF","DL","Darlington","DL6",54.348466,-1.435519
"Northampton","Northampton parkrun","NN1 4LG","NN","Northampton","NN1",52.248143,-0.884445
"Northwich","Northwich parkrun","CW9 5LN","CW","Crewe","CW9",53.265511,-2.510876
"Norwich","Norwich parkrun","NR4 7EG","NR","Norwich","NR4",52.620422,1.255682
"Nostell","Nostell parkrun","WF4 1RA","WF","Wakefield","WF4",53.650212,-1.381241
"Nova Prestatyn","Nova Prestatyn parkrun","LL19 7EY","LL","Llandudno","LL19",53.342126,-3.414183
"Oak Hill","Oak Hill parkrun","EN4 8XD","EN","Enfield","EN4",51.637718,-0.153744
"Oaklands","Oaklands parkrun","B25 8FD","B","Birmingham","B25",52.466391,-1.818013
"Old Deer Park","Old Deer Park parkrun","TW10 5EZ","TW","Twickenham","TW10",51.464417,-0.306973
"Old Railway Trail, Llangollen","Old Railway Trail parkrun, Llangollen","LL20 8LD","LL","Llandudno","LL20",52.97016,-3.160221
"Oldham","Oldham parkrun","OL8 2AU","OL","Oldham","OL8",53.534187,-2.104118
"Omagh","Omagh parkrun","BT79 7EG","BT","Belfast","BT79",54.602837,-7.296222
"Orangefield","Orangefield parkrun","BT5 5PA","BT","Belfast","BT5",54.588509,-5.884361
"Oriam","Oriam parkrun","EH14 4BA","EH","Edinburgh","EH14",55.909754,-3.31715
"Ormeau","Ormeau parkrun","BT6 8LT","BT","Belfast","BT6",54.588374,-5.914786
"Ormskirk","Ormskirk parkrun","L39 4AW","L","Liverpool","L39",53.559245,-2.868097
"Orpington","Orpington parkrun","BR6 7TA","BR","Bromley","BR6",51.365283,0.117224
"Osterley","Osterley parkrun","TW7 4RB","TW","Twickenham","TW7",51.489403,-0.349889
"Oxford","Oxford parkrun","OX2 8ES","OX","Oxford","OX2",51.790901,-1.262419
"Palacerigg Country","Palacerigg Country parkrun","G67 3HU","G","Glasgow","G67",55.937089,-3.949289
"Panshanger","Panshanger parkrun","SG14 2WN","SG","Stevenage","SG14",51.796066,-0.107589
"Parke","Parke parkrun","TQ13 9JQ","TQ","Torquay","TQ13",50.59305,-3.686562
"Pavilion Gardens","Pavilion Gardens parkrun","SK17 6JR","SK","Stockport","SK17",53.254611,-1.918759
"Peacehaven","Peacehaven parkrun","BN10 8GN","BN","Brighton","BN10",50.794092,0.012418
"Peckham Rye","Peckham Rye parkrun","SE22 0NE","SE","South East London","SE22",51.455486,-0.060688
"Peel","Peel parkrun","M5 4NT","M","Manchester","M5",53.48759,-2.270682
"Pegwell Bay","Pegwell Bay parkrun","CT12 5JB","CT","Canterbury","CT12",51.320957,1.361446
"Penallta","Penallta parkrun","CF82 7FN","CF","Cardiff","CF82",51.644889,-3.245679
"Pendle","Pendle parkrun","BB8 9DN","BB","Blackburn","BB8",53.863571,-2.18011
"Penistone","Penistone parkrun","S36 6BA","S","Sheffield","S36",53.526568,-1.635407
"Pennington Flash","Pennington Flash parkrun","WN7 4QQ","WN","Wigan","WN7",53.491608,-2.542745
"Penrhyn","Penrhyn parkrun","LL57 4HW","LL","Llandudno","LL57",53.226852,-4.094495
"Penrith","Penrith parkrun","CA11 8UA","CA","Carlisle","CA11",54.658026,-2.720532
"Penrose","Penrose parkrun","TR13 8WN","TR","Truro","TR13",50.096824,-5.281819
"Penryn Campus","Penryn Campus parkrun","TR10 9FE","TR","Truro","TR10",50.170244,-5.124008
"Perry Hall","Perry Hall parkrun","B42 2NE","B","Birmingham","B42",52.52486,-1.911825
"Perth","Perth parkrun","PH1 5DN","PH","Perth","PH1",56.40515,-3.435422
"Peter Pan","Peter Pan parkrun","HU4 6EL","HU","Hull","HU4",53.73833,-0.402181
"Philips Park","Philips Park parkrun","M11 4TT","M","Manchester","M11",53.488346,-2.192484
"Phoenix","Phoenix parkrun","WA7 2RX","WA","Warrington","WA7",53.337865,-2.681623
"Plean","Plean parkrun","FK7 8FL","FK","Falkirk","FK7",56.057791,-3.881607
"Plymvalley","Plymvalley parkrun","PL6 8AW","PL","Plymouth","PL6",50.409091,-4.079618
"Pocket","Pocket parkrun","PE19 2GB","PE","Peterborough","PE19",52.214797,-0.275327
"Polkemmet Country","Polkemmet Country parkrun","EH47 0AD","EH","Edinburgh","EH47",55.866214,-3.720256
"Pollok","Pollok parkrun, Glasgow","G41 4BE","G","Glasgow","G41",55.82992,-4.307882
"Pomphrey Hill","Pomphrey Hill parkrun","BS16 9NF","BS","Bristol","BS16",51.479321,-2.47805
"Pont y Bala","Pont y Bala parkrun","LL23 7NN","LL","Llandudno","LL23",52.912396,-3.593199
"Pontefract","Pontefract parkrun","WF8 4QD","WF","Wakefield","WF8",53.697922,-1.325197
"Pontypool","Pontypool parkrun","NP4 8AN","NP","Newport","NP4",51.699213,-3.028573
"Pontypridd","Pontypridd parkrun","CF37 4SU","CF","Cardiff","CF37",51.602009,-3.339028
"Poole","Poole parkrun","BH15 2NX","BH","Bournemouth","BH15",50.720348,-1.968876
"Poolsbrook","Poolsbrook parkrun","S43 3WL","S","Sheffield","S43",53.259118,-1.348842
"Porthcawl","Porthcawl parkrun","CF36 3YW","CF","Cardiff","CF36",51.476331,-3.705976
"Portobello","Portobello parkrun, Edinburgh","EH8 7TE","EH","Edinburgh","EH8",55.950689,-3.122656
"Portrush","Portrush parkrun","BT56 8AH","BT","Belfast","BT56",55.204638,-6.648788
"Portsmouth Lakeside","Portsmouth Lakeside parkrun","PO6 3EN","PO","Portsmouth","PO6",50.840654,-1.08157
"Potternewton","Potternewton parkrun","LS7 4HN","LS","Leeds","LS7",53.818446,-1.526274
"Preston","Preston parkrun","PR1 3EE","PR","Preston","PR1",53.751374,-2.703902
"Preston Park","Preston Park parkrun, Brighton","BN1 6SD","BN","Brighton","BN1",50.841557,-0.148616
"Princes","Princes parkrun, Liverpool","L8 3TE","L","Liverpool","L8",53.386456,-2.956975
"Prospect","Prospect parkrun","RG30 2ND","RG","Reading","RG30",51.448386,-1.00741
"Prudhoe Riverside","Prudhoe Riverside parkrun","NE42 6AD","NE","Newcastle upon Tyne","NE42",54.968071,-1.863141
"Pymmes","Pymmes parkrun","N9 9SU","N","North London","N9",51.61887,-0.066953
"Quakers Walk","Quakers Walk parkrun","SN10 2DJ","SN","Swindon","SN10",51.355501,-1.99217
"Queens, Belfast","Queens parkrun, Belfast","BT9 5NB","BT","Belfast","BT9",54.555092,-5.963387
"Queens, Glasgow","Queens parkrun, Glasgow","G42 8QR","G","Glasgow","G42",55.833509,-4.270076
"Queen Elizabeth","Queen Elizabeth parkrun","PO8 0QE","PO","Portsmouth","PO8",50.956372,-0.978384
"Raphael","Raphael parkrun","RM2 5AN","RM","Romford","RM2",51.585798,0.19249
"Reading","Reading parkrun","RG6 1PQ","RG","Reading","RG6",51.460384,-0.941573
"Redcar","Redcar parkrun","TS10 1QH","TS","Teesside","TS10",54.615225,-1.07902
"Reigate Priory","Reigate Priory parkrun","RH2 7RL","RH","Redhill","RH2",51.23435,-0.208644
"Rendlesham Forest","Rendlesham Forest parkrun","IP12 3NF","IP","Ipswich","IP12",52.083267,1.428606
"Richmond Park","Richmond parkrun","TW10 6JH","TW","Twickenham","TW10",51.451962,-0.292886
"Rickmansworth","Rickmansworth parkrun","WD3 1NF","WD","Watford","WD3",51.633087,-0.47589
"Riddlesdown","Riddlesdown parkrun","CR8 5GX","CR","Croydon","CR8",51.318485,-0.079549
"Rising Sun","Rising Sun parkrun","NE12 9SS","NE","Newcastle upon Tyne","NE12",55.01998,-1.532028
"Riverfront","Riverfront parkrun","NP20 1HG","NP","Newport","NP20",51.588559,-2.993317
"Riverside","Riverside parkrun","DH3 3PN","DH","Durham","DH3",54.853983,-1.563277
"Roberts Park","Roberts Park parkrun","BD17 5RN","BD","Bradford","BD17",53.841468,-1.793275
"Roding Valley","Roding Valley parkrun","IG10 3LJ","IG","Ilford","IG10",51.638607,0.066415
"Rogiet","Rogiet parkrun","NP26 3WF","NP","Newport","NP26",51.583268,-2.779965
"Rosliston","Rosliston parkrun","DE12 8JX","DE","Derby","DE12",52.754526,-1.639681
"Ross-on-Wye","Ross-on-Wye parkrun","HR9 5BJ","HR","Hereford","HR9",51.912943,-2.594417
"Rostrevor","Rostrevor parkrun","BT34 3EL","BT","Belfast","BT34",54.099486,-6.193448
"Rothay Park","Rothay Park parkrun","LA22 9LJ","LA","Lancaster","LA22",54.431563,-2.969788
"Rother Valley","Rother Valley parkrun","S26 5RN","S","Sheffield","S26",53.341508,-1.320226
"Rotherham","Rotherham parkrun","S65 2AY","S","Sheffield","S65",53.430538,-1.343218
"Rothwell","Rothwell parkrun","LS26 0LE","LS","Leeds","LS26",53.750032,-1.473456
"Roundhay","Roundhay parkrun","LS8 2HH","LS","Leeds","LS8",53.83828,-1.496007
"Roundshaw Downs","Roundshaw Downs parkrun","CR0 4RL","CR","Croydon","CR0",51.352253,-0.11872
"Royal Tunbridge Wells","Royal Tunbridge Wells parkrun","TN2 3QA","TN","Tunbridge Wells","TN2",51.133614,0.284851
"Ruchill","Ruchill parkrun","G20 7SR","G","Glasgow","G20",55.884538,-4.276162
"Rugby","Rugby parkrun","CV21 3SD","CV","Coventry","CV21",52.37318,-1.238464
"Rushcliffe","Rushcliffe parkrun","NG11 6JS","NG","Nottingham","NG11",52.882497,-1.149104
"Rushmere","Rushmere parkrun","LU7 0EE","LU","Luton","LU7",51.947057,-0.674095
"Rushmoor","Rushmoor parkrun","GU11 2JL","GU","Guildford","GU11",51.265798,-0.755847
"Ruthin Memorial Playing Fields","Ruthin Memorial Playing Fields parkrun","LL15 1PF","LL","Llandudno","LL15",53.115985,-3.317265
"Rutland Water","Rutland Water parkrun","LE15 8RP","LE","Leicester","LE15",52.643712,-0.624447
"Salcey Forest","Salcey Forest parkrun","NN7 2HX","NN","Northampton","NN7",52.159223,-0.841556
"Sale Water","Sale Water parkrun","M33 2LX","M","Manchester","M33",53.429585,-2.294545
"Salisbury","Salisbury parkrun","SP1 2HW","SP","Salisbury","SP1",51.061528,-1.789858
"Sandall Park","Sandall Park parkrun","DN2 5DZ","DN","Doncaster","DN2",53.544969,-1.089474
"Sandhurst Memorial","Sandhurst Memorial parkrun","GU47 9BJ","GU","Guildford","GU47",51.343825,-0.791694
"Sandringham","Sandringham parkrun","PE35 6AB","PE","Peterborough","PE35",52.829752,0.504942
"Sandwell Valley","Sandwell Valley parkrun","B70 6TW","B","Birmingham","B70",52.521531,-1.97579
"Sandy Water","Sandy Water parkrun","SA15 4SJ","SA","Swansea","SA15",51.680293,-4.174644
"Scunthorpe","Scunthorpe parkrun","DN15 5RY","DN","Doncaster","DN15",53.581755,-0.656476
"Seaford Beach","Seaford Beach parkrun","BN25 2QR","BN","Brighton","BN25",50.778986,0.079566
"Seaton","Seaton parkrun","EX12 2QW","EX","Exeter","EX12",50.703349,-3.072064
"Sedgefield","Sedgefield parkrun","TS21 2DN","TS","Teesside","TS21",54.653008,-1.466289
"Selby","Selby parkrun","YO8 8LD","YO","York","YO8",53.751824,-1.078398
"Sence Valley Forest Park","Sence Valley Forest Park parkrun","LE67 6AQ","LE","Leicester","LE67",52.696067,-1.408816
"Seven Fields","Seven Fields parkrun","SN25 3AH","SN","Swindon","SN25",51.586619,-1.781711
"Severn Bridge","Severn Bridge parkrun","NP16 5GF","NP","Newport","NP16",51.619014,-2.664531
"Severn Valley Country","Severn Valley Country parkrun","WV15 6HG","WV","Wolverhampton","WV15",52.453316,-2.364842
"Sewerby","Sewerby parkrun","YO15 1EA","YO","York","YO15",54.103268,-0.160761
"Sharpham Estate","Sharpham Estate parkrun","TQ9 5WY","TQ","Torquay","TQ9",50.424904,-3.682105
"Sharpham Road Playing Fields","Sharpham Road Playing Fields parkrun","BS27 3FP","BS","Bristol","BS27",51.279496,-2.793181
"Sheffield Castle","Sheffield Castle parkrun","S2 1GF","S","Sheffield","S2",53.366782,-1.436827
"Shepton Mallet","Shepton Mallet parkrun","BA4 5PJ","BA","Bath","BA4",51.187513,-2.542461
"Sheringham","Sheringham parkrun","NR26 8TJ","NR","Norwich","NR26",52.928775,1.180601
"Sherwood Pines","Sherwood Pines parkrun","NG21 9JH","NG","Nottingham","NG21",53.165828,-1.084839
"Shipley Country","Shipley Country parkrun","DE75 7EE","DE","Derby","DE75",53.008339,-1.359978
"Shorne Woods","Shorne Woods parkrun","DA12 3HX","DA","Dartford","DA12",51.404426,0.418618
"Shrewsbury","Shrewsbury parkrun","SY1 1JX","SY","Shrewsbury","SY1",52.706942,-2.75921
"Silksworth","Silksworth parkrun","SR3 1PD","SR","Sunderland","SR3",54.883911,-1.409099
"Silloth Promenade","Silloth Promenade parkrun","CA7 4DU","CA","Carlisle","CA7",54.873987,-3.387605
"Sittingbourne","Sittingbourne parkrun","ME10 2EY","ME","Medway","ME10",51.354976,0.740569
"Sixfields Upton","Sixfields Upton parkrun","NN5 4EQ","NN","Northampton","NN5",52.228528,-0.942236
"Sixmilewater","Sixmilewater parkrun","BT39 9DP","BT","Belfast","BT39",54.750004,-5.998945
"Sizewell","Sizewell parkrun","IP16 4UE","IP","Ipswich","IP16",52.210167,1.622193
"Skipton","Skipton parkrun","BD23 1QR","BD","Bradford","BD23",53.961331,-2.030004
"Sloughbottom","Sloughbottom parkrun","NR3 2ES","NR","Norwich","NR3",52.647255,1.266994
"Snowden Field","Snowden Field parkrun","PE6 0AH","PE","Peterborough","PE6",52.673995,-0.164731
"Soham Village College","Soham Village College parkrun","CB7 5FZ","CB","Cambridge","CB7",52.329737,0.338064
"Somerdale Pavilion","Somerdale Pavilion parkrun","BS31 2GB","BS","Bristol","BS31",51.426469,-2.495689
"South Manchester","South Manchester parkrun","M14 6LA","M","Manchester","M14",53.446072,-2.224689
"South Norwood","South Norwood parkrun","SE25 4BH","SE","South East London","SE25",51.396111,-0.059908
"South Oxhey","South Oxhey parkrun","WD19 4LS","WD","Watford","WD19",51.631433,-0.393135
"South Shields","South Shields parkrun","NE33 3NG","NE","Newcastle upon Tyne","NE33",54.995687,-1.408052
"South Woodham Ferrers","South Woodham Ferrers parkrun","SS5 6PJ","SS","Southend-on-Sea","SS5",51.631642,0.613014
"Southall","Southall parkrun","UB1 3DN","UB","Southall","UB1",51.509737,-0.36957
"Southampton","Southampton parkrun","SO15 7NN","SO","Southampton","SO15",50.923624,-1.407766
"Southend","Southend parkrun","SS3 9FD","SS","Southend-on-Sea","SS3",51.523431,0.787526
"Southport","Southport parkrun","PR9 9ND","PR","Preston","PR9",53.656276,-2.985341
"Southsea","Southsea parkrun","PO5 3PG","PO","Portsmouth","PO5",50.778853,-1.081316
"Southwark","Southwark parkrun","SE16 2FB","SE","South East London","SE16",51.494242,-0.053151
"Southwick Country Park","Southwick Country parkrun","BA14 9EZ","BA","Bath","BA14",51.306461,-2.234092
"Springburn","Springburn parkrun, Glasgow","G21 3BQ","G","Glasgow","G21",55.889857,-4.224823
"Squerryes Winery","Squerryes Winery parkrun","TN16 1QP","TN","Tunbridge Wells","TN16",51.275986,0.08667
"St Albans","St Albans parkrun","AL3 4SN","AL","St Albans","AL3",51.75193,-0.355371
"St Andrews","St Andrews parkrun","KY16 8NG","KY","Kirkcaldy","KY16",56.317711,-2.838234
"St Helens","St Helens parkrun","WA10 2UB","WA","Warrington","WA10",53.46322,-2.744088
"St Marys","St Marys parkrun","DT6 3XB","DT","Dorchester","DT6",50.729456,-2.760744
"Stamford Park","Stamford Park parkrun","SK15 1JG","SK","Stockport","SK15",53.490901,-2.066163
"Stevenage","Stevenage parkrun","SG2 0BL","SG","Stevenage","SG2",51.902634,-0.17993
"Stewart","Stewart parkrun, Middlesbrough","TS7 8AT","TS","Teesside","TS7",54.53809,-1.203561
"Stockley Country","Stockley Country parkrun","UB7 8BU","UB","Southall","UB7",51.51492,-0.458739
"Stonehaven","Stonehaven parkrun","AB39 3BH","AB","Aberdeen","AB39",56.969993,-2.212502
"Stonehouse","Stonehouse parkrun","GL10 2DF","GL","Gloucester","GL10",51.752554,-2.287804
"Storeys Field","Storeys Field parkrun","CB3 1AA","CB","Cambridge","CB3",52.219098,0.089579
"Stormont","Stormont parkrun","BT4 3GU","BT","Belfast","BT4",54.598318,-5.837749
"Stratford Park, Stroud","Stratford Park parkrun, Stroud","GL5 4AQ","GL","Gloucester","GL5",51.74897,-2.225007
"Stratford-upon-Avon","Stratford-upon-Avon parkrun","CV37 7LR","CV","Coventry","CV37",52.184998,-1.701445
"Strathclyde","Strathclyde parkrun","ML3 6JW","ML","Motherwell","ML3",55.789631,-4.031425
"Street","Street parkrun","BA16 0DJ","BA","Bath","BA16",51.129515,-2.729089
"Stretford","Stretford parkrun","M21 9TA","M","Manchester","M21",53.446121,-2.290281
"Sunny Hill","Sunny Hill parkrun","NW4 1JE","NW","North West London","NW4",51.598193,-0.229717
"Sutcliffe","Sutcliffe parkrun","SE3 9NF","SE","South East London","SE3",51.454343,0.026739
"Sutton Manor","Sutton Manor parkrun","WA9 4BA","WA","Warrington","WA9",53.411392,-2.726901
"Sutton Park","Sutton Park parkrun","B73 6SD","B","Birmingham","B73",52.558505,-1.867129
"Swaffham","Swaffham parkrun","PE37 7DZ","PE","Peterborough","PE37",52.638607,0.688461
"Swanley","Swanley parkrun","BR8 7YB","BR","Bromley","BR8",51.404175,0.17519
"Swansea Bay","Swansea Bay parkrun","SA2 0AY","SA","Swansea","SA2",51.611029,-3.967061
"Talkin Tarn Country Park","Talkin Tarn Country Park parkrun","CA8 1HN","CA","Carlisle","CA8",54.924753,-2.707392
"Tamar Lakes","Tamar Lakes parkrun","EX22 7RW","EX","Exeter","EX22",50.879837,-4.433418
"Tamar Trails","Tamar Trails parkrun","PL19 8JE","PL","Plymouth","PL19",50.535163,-4.201763
"Tawd Valley","Tawd Valley parkrun","WN8 6LT","WN","Wigan","WN8",53.550281,-2.775829
"Teifi Marshes Nature Reserve","Teifi Marshes Nature Reserve parkrun","SA43 2TB","SA","Swansea","SA43",52.073638,-4.648047
"Teignmouth Promenade","Teignmouth Promenade parkrun","TQ14 8BB","TQ","Torquay","TQ14",50.544428,-3.494987
"Telford","Telford parkrun","TF3 4EP","TF","Telford","TF3",52.67123,-2.447934
"Temple Newsam","Temple Newsam parkrun","LS15 0BG","LS","Leeds","LS15",53.784781,-1.456461
"Tetbury Goods Shed","Tetbury Goods Shed parkrun","GL8 8DG","GL","Gloucester","GL8",51.637222,-2.155818
"Tewkesbury","Tewkesbury parkrun","GL20 5UB","GL","Gloucester","GL20",51.987666,-2.159373
"Thames Path, Woolwich","Thames Path parkrun, Woolwich","SE28 0GL","SE","South East London","SE28",51.49615,0.076671
"The Cinder Track","The Cinder Track parkrun, Whitby","YO21 1AL","YO","York","YO21",54.4779,-0.620751
"The Great Field","The Great Field parkrun","DT1 2FD","DT","Dorchester","DT1",50.713642,-2.458095
"The Leas","The Leas parkrun, Minster","ME12 2JX","ME","Medway","ME12",51.434038,0.80213
"The Old Showfield","The Old Showfield parkrun","BA11 2EF","BA","Bath","BA11",51.236186,-2.308238
"The Pastures","The Pastures parkrun","NE66 1NB","NE","Newcastle upon Tyne","NE66",55.418455,-1.705393
"The Wammy","The Wammy parkrun","ST5 9HE","ST","Stoke-on-Trent","ST5",53.017811,-2.238701
"Thetford","Thetford parkrun","IP24 1BB","IP","Ipswich","IP24",52.4156,0.743766
"Thomas Mills","Thomas Mills parkrun","IP13 9RE","IP","Ipswich","IP13",52.228375,1.325981
"Thornbury","Thornbury parkrun","BS35 1NA","BS","Bristol","BS35",51.606368,-2.530114
"Thornham Walks","Thornham Walks parkrun","IP23 8HH","IP","Ipswich","IP23",52.304311,1.077504
"Thorp Perrow","Thorp Perrow parkrun","DL8 2PS","DL","Darlington","DL8",54.261285,-1.6042
"Thurrock","Thurrock parkrun, Orsett Heath","RM16 3AA","RM","Romford","RM16",51.491427,0.363436
"Thurso","Thurso parkrun","KW14 8PS","KW","Kirkwall","KW14",58.589573,-3.521554
"Tidworth","Tidworth parkrun","SP9 7BT","SP","Salisbury","SP9",51.224947,-1.667571
"Tilgate","Tilgate parkrun","RH10 5PG","RH","Redhill","RH10",51.097,-0.175623
"Tollcross","Tollcross parkrun, Glasgow","G32 8TF","G","Glasgow","G32",55.847494,-4.179461
"Tonbridge","Tonbridge parkrun","TN9 1HF","TN","Tunbridge Wells","TN9",51.197605,0.270174
"Tooting Common","Tooting Common parkrun","SW17 8JT","SW","South West London","SW17",51.433342,-0.14677
"Torbay Velopark","Torbay Velopark parkrun","TQ4 5JR","TQ","Torquay","TQ4",50.423441,-3.564297
"Torvean","Torvean parkrun","IV3 8JL","IV","Inverness","IV3",57.462669,-4.24886
"Town Moor","Town Moor parkrun","NE2 4PZ","NE","Newcastle upon Tyne","NE2",54.988451,-1.617143
"Trelai Park","Trelai Park parkrun","CF5 5BJ","CF","Cardiff","CF5",51.478969,-3.232766
"Trelissick","Trelissick parkrun","TR3 6QJ","TR","Truro","TR3",50.217331,-5.02826
"Tremorfa","Tremorfa parkrun","CF24 2HH","CF","Cardiff","CF24",51.486237,-3.132727
"Trentham Gardens","Trentham Gardens parkrun","ST4 8JG","ST","Stoke-on-Trent","ST4",52.963874,-2.199424
"Troon","Troon parkrun","KA10 6AN","KA","Kilmarnock","KA10",55.541413,-4.670058
"Tyne Green","Tyne Green parkrun","NE46 3HQ","NE","Newcastle upon Tyne","NE46",54.977878,-2.101526
"Uckfield","Uckfield parkrun","TN22 3DL","TN","Tunbridge Wells","TN22",50.977857,0.11306
"University Parks","University Parks parkrun","OX1 3PL","OX","Oxford","OX1",51.761468,-1.251068
"University of Northampton","University of Northampton parkrun","NN1 5PA","NN","Northampton","NN1",52.230017,-0.886741
"University of Stirling","University of Stirling parkrun","FK9 4LP","FK","Falkirk","FK9",56.147334,-3.924236
"Upton Court","Upton Court parkrun","SL3 7LT","SL","Slough","SL3",51.49616,-0.577525
"Upton House","Upton House parkrun","BH17 7BJ","BH","Bournemouth","BH17",50.734891,-2.013428
"Ury Riverside","Ury Riverside parkrun","AB51 6AN","AB","Aberdeen","AB51",57.291953,-2.372062
"Valentines","Valentines parkrun","IG1 4SB","IG","Ilford","IG1",51.56749,0.07198
"Valley","Valley parkrun, Newtownabbey","BT36 7LJ","BT","Belfast","BT36",54.659949,-5.928342
"Victoria","Victoria parkrun, Glasgow","G14 9NL","G","Glasgow","G14",55.877504,-4.332347
"Victoria Dock","Victoria Dock parkrun","E16 1SH","E","East London","E16",51.505363,0.018775
"Vogrie","Vogrie parkrun","EH23 4NU","EH","Edinburgh","EH23",55.856879,-2.995012
"Wakefield Thornes","Wakefield Thornes parkrun","WF2 8QZ","WF","Wakefield","WF2",53.672488,-1.509682
"Wallace","Wallace parkrun, Lisburn","BT27 4AJ","BT","Belfast","BT27",54.516511,-6.036816
"Wallaceneuk","Wallaceneuk parkrun","TD5 8JW","TD","Galashiels","TD5",55.585864,-2.448162
"Walmer and Deal Seafront","Walmer and Deal Seafront parkrun","CT14 7HJ","CT","Canterbury","CT14",51.2095,1.403179
"Walsall Arboretum","Walsall Arboretum parkrun","WS1 2QF","WS","Walsall","WS1",52.58725,-1.966252
"Walthamstow","Walthamstow parkrun","E17 4HT","E","East London","E17",51.602666,-0.007854
"Wanstead Flats","Wanstead Flats parkrun","E11 3ES","E","East London","E11",51.56078,0.014977
"Warrington","Warrington parkrun","WA4 1DU","WA","Warrington","WA4",53.384221,-2.574685
"Warwick Racecourse","Warwick Racecourse parkrun","CV34 4DX","CV","Coventry","CV34",52.280789,-1.595954
"Watergrove","Watergrove parkrun, Rochdale","OL12 9NE","OL","Oldham","OL12",53.657034,-2.131777
"Watermead Country Park","Watermead Country Park parkrun","LE7 1PL","LE","Leicester","LE7",52.690658,-1.103213
"Watermeadows","Watermeadows parkrun","NN12 9ZZ","NN","Northampton","NN12",52.13458,-0.988391
"Waterworks","Waterworks parkrun, Belfast","BT14 6DB","BT","Belfast","BT14",54.619299,-5.942613
"Wendover Woods","Wendover Woods parkrun","HP22 5GY","HP","Hemel Hempstead","HP22",51.76894,-0.716782
"Wepre","Wepre parkrun","CH5 4HL","CH","Chester","CH5",53.205552,-3.056846
"West Links","West Links parkrun","DD11 2PT","DD","Dundee","DD11",56.551299,-2.602859
"Westmill","Westmill parkrun","SG12 0ES","SG","Stevenage","SG12",51.821422,-0.060813
"Wetherby","Wetherby parkrun","LS22 5FH","LS","Leeds","LS22",53.925673,-1.392197
"Weymouth","Weymouth parkrun","DT4 7SX","DT","Dorchester","DT4",50.625242,-2.447795
"Whinlatter Forest","Whinlatter Forest parkrun","CA12 5TW","CA","Carlisle","CA12",54.610017,-3.22446
"Whitehaven","Whitehaven parkrun","CA28 8EG","CA","Carlisle","CA28",54.524733,-3.573636
"Whitekirk Hill","Whitekirk Hill parkrun","EH39 5PR","EH","Edinburgh","EH39",56.033364,-2.644542
"Whiteley","Whiteley parkrun","PO15 7HD","PO","Portsmouth","PO15",50.884669,-1.250819
"Whitley Bay","Whitley Bay parkrun","NE26 1PS","NE","Newcastle upon Tyne","NE26",55.048875,-1.448736
"Whitstable","Whitstable parkrun","CT5 2DN","CT","Canterbury","CT5",51.365295,1.041942
"Wickford Memorial","Wickford Memorial parkrun","SS11 8JS","SS","Southend-on-Sea","SS11",51.619452,0.535186
"Widnes","Widnes parkrun","WA8 6SQ","WA","Warrington","WA8",53.374508,-2.730069
"Wilmslow","Wilmslow parkrun","SK9 4AA","SK","Stockport","SK9",53.331288,-2.231588
"Wimbledon Common","Wimbledon Common parkrun","SW15 4BY","SW","South West London","SW15",51.442078,-0.232215
"Wimpole Estate","Wimpole Estate parkrun","SG8 0BW","SG","Stevenage","SG8",52.140442,-0.047207
"Winchester","Winchester parkrun","SO23 7EG","SO","Southampton","SO23",51.069286,-1.310849
"Windy Nook","Windy Nook parkrun","NE10 9AU","NE","Newcastle upon Tyne","NE10",54.940189,-1.563025
"Wisbech","Wisbech parkrun","PE13 3DN","PE","Peterborough","PE13",52.666891,0.166294
"Witney","Witney parkrun","OX29 0NB","OX","Oxford","OX29",51.789974,-1.513356
"Witton","Witton parkrun","BB2 2TP","BB","Blackburn","BB2",53.74055,-2.517211
"Woking","Woking parkrun","GU22 7LY","GU","Guildford","GU22",51.311708,-0.556204
"Wolford Wood","Wolford Wood parkrun","GL56 0PE","GL","Gloucester","GL56",51.995091,-1.655677
"Wollaton Hall","Wollaton Hall parkrun","NG8 2AD","NG","Nottingham","NG8",52.951893,-1.211018
"Wolverhampton","Wolverhampton parkrun","WV1 4PW","WV","Wolverhampton","WV1",52.588775,-2.140875
"Woodbank","Woodbank parkrun","SK1 4JR","SK","Stockport","SK1",53.408405,-2.130945
"Woodgate Valley Country Park","Woodgate Valley Country Park parkrun","B32 1RD","B","Birmingham","B32",52.449447,-2.005952
"Woodhouse Moor","Woodhouse Moor parkrun","LS6 1AN","LS","Leeds","LS6",53.808582,-1.560059
"Woodley","Woodley parkrun","RG5 4JZ","RG","Reading","RG5",51.45418,-0.903669
"Woolacombe Dunes","Woolacombe Dunes parkrun","EX33 1LD","EX","Exeter","EX33",51.159264,-4.209982
"Worcester","Worcester parkrun","WR5 2LG","WR","Worcester","WR5",52.186989,-2.178726
"Worcester Pitchcroft","Worcester Pitchcroft parkrun","WR1 3JE","WR","Worcester","WR1",52.201513,-2.231964
"Workington","Workington parkrun","CA14 1DB","CA","Carlisle","CA14",54.647169,-3.539767
"Wormwood Scrubs","Wormwood Scrubs parkrun","W12 0AE","W","West London","W12",51.520412,-0.238523
"Worsley Woods","Worsley Woods parkrun","M30 8HE","M","Manchester","M30",53.494328,-2.359056
"Worthing","Worthing parkrun","BN11 3PN","BN","Brighton","BN11",50.810312,-0.3645
"Wotton","Wotton parkrun","GL12 8RB","GL","Gloucester","GL12",51.633149,-2.368786
"Wycombe Rye","Wycombe Rye parkrun","HP11 1DZ","HP","Hemel Hempstead","HP11",51.62337,-0.74009
"Wynyard Woodland","Wynyard Woodland parkrun","TS21 3JG","TS","Teesside","TS21",54.612497,-1.378363
"Wyre Forest","Wyre Forest parkrun","DY14 9XQ","DY","Dudley","DY14",52.365002,-2.369798
"Wythenshawe","Wythenshawe parkrun","M23 9RQ","M","Manchester","M23",53.405502,-2.288139
"Yarborough Leisure Centre","Yarborough Leisure Centre parkrun","LN1 3PS","LN","Lincoln","LN1",53.247281,-0.542854
"York","York parkrun","YO24 1JT","YO","York","YO24",53.935375,-1.101379
